{"type": "FeatureCollection", "name": "NRN NL 7.0 road segments for the SAMPLE streets in Grand Falls-Windsor (Statistics Canada, Open Government Licence - Canada)", "features": [{"type": "Feature", "properties": {"street": "Mill Road", "NID": "b6a3056bc2824a13a3ce559c0afb4054", "L_STNAME_C": "Mill Road", "R_STNAME_C": "Mill Road", "L_PLACENAM": "Grand Falls-Windsor", "R_PLACENAM": "Grand Falls-Windsor", "ROADCLASS": "Local / Street"}, "geometry": {"type": "MultiLineString", "coordinates": [[[-55.659906, 48.927934], [-55.661275, 48.927293], [-55.661375, 48.927114]]]}}, {"type": "Feature", "properties": {"street": "Cromer Avenue", "NID": "f02e80f2f8024a38bc90a77b38eae846", "L_STNAME_C": "Cromer Avenue", "R_STNAME_C": "Cromer Avenue", "L_PLACENAM": "Grand Falls-Windsor", "R_PLACENAM": "Grand Falls-Windsor", "ROADCLASS": "Collector"}, "geometry": {"type": "MultiLineString", "coordinates": [[[-55.654094, 48.946056], [-55.654358, 48.945384], [-55.654572, 48.945045], [-55.654769, 48.944813], [-55.656464, 48.943259]]]}}, {"type": "Feature", "properties": {"street": "Cromer Avenue", "NID": "67e0ade4155147a79e26b2796b2ab177", "L_STNAME_C": "Cromer Avenue", "R_STNAME_C": "Cromer Avenue", "L_PLACENAM": "Grand Falls-Windsor", "R_PLACENAM": "Grand Falls-Windsor", "ROADCLASS": "Collector"}, "geometry": {"type": "MultiLineString", "coordinates": [[[-55.658804, 48.941037], [-55.65949, 48.940415], [-55.659892, 48.940168], [-55.660527, 48.939906], [-55.660858, 48.939819]]]}}, {"type": "Feature", "properties": {"street": "Cromer Avenue", "NID": "18122a29575540d79ee2ca4989dbc77b", "L_STNAME_C": "Cromer Avenue", "R_STNAME_C": "Cromer Avenue", "L_PLACENAM": "Grand Falls-Windsor", "R_PLACENAM": "Grand Falls-Windsor", "ROADCLASS": "Collector"}, "geometry": {"type": "MultiLineString", "coordinates": [[[-55.654863, 48.954044], [-55.654503, 48.954211]]]}}, {"type": "Feature", "properties": {"street": "Cromer Avenue", "NID": "56c53796bf2649fbae5b477232af2f37", "L_STNAME_C": "Cromer Avenue", "R_STNAME_C": "Cromer Avenue", "L_PLACENAM": "Grand Falls-Windsor", "R_PLACENAM": "Grand Falls-Windsor", "ROADCLASS": "Collector"}, "geometry": {"type": "MultiLineString", "coordinates": [[[-55.662833, 48.938988], [-55.662972, 48.93889], [-55.663815, 48.938001]]]}}, {"type": "Feature", "properties": {"street": "Cromer Avenue", "NID": "42fac31ae32648849416b33bcdb65d87", "L_STNAME_C": "Cromer Avenue", "R_STNAME_C": "Cromer Avenue", "L_PLACENAM": "Grand Falls-Windsor", "R_PLACENAM": "Grand Falls-Windsor", "ROADCLASS": "Collector"}, "geometry": {"type": "MultiLineString", "coordinates": [[[-55.660858, 48.939819], [-55.661779, 48.93956], [-55.662111, 48.939429], [-55.662582, 48.939183], [-55.662833, 48.938988]]]}}, {"type": "Feature", "properties": {"street": "Cromer Avenue", "NID": "0ead42dbe8a841a8a3bea394c6f09102", "L_STNAME_C": "Cromer Avenue", "R_STNAME_C": "Cromer Avenue", "L_PLACENAM": "Grand Falls-Windsor", "R_PLACENAM": "Grand Falls-Windsor", "ROADCLASS": "Collector"}, "geometry": {"type": "MultiLineString", "coordinates": [[[-55.66417, 48.937474], [-55.663815, 48.938001]]]}}, {"type": "Feature", "properties": {"street": "Cromer Avenue", "NID": "12c8d8724d0d4eb68a196a55a9c3d44a", "L_STNAME_C": "Cromer Avenue", "R_STNAME_C": "Cromer Avenue", "L_PLACENAM": "Grand Falls-Windsor", "R_PLACENAM": "Grand Falls-Windsor", "ROADCLASS": "Collector"}, "geometry": {"type": "MultiLineString", "coordinates": [[[-55.658006, 48.941783], [-55.658608, 48.941215], [-55.658804, 48.941037]]]}}, {"type": "Feature", "properties": {"street": "Cromer Avenue", "NID": "59f707cfba724d37bf6ab86d6df59408", "L_STNAME_C": "Cromer Avenue", "R_STNAME_C": "Cromer Avenue", "L_PLACENAM": "Grand Falls-Windsor", "R_PLACENAM": "Grand Falls-Windsor", "ROADCLASS": "Collector"}, "geometry": {"type": "MultiLineString", "coordinates": [[[-55.653173, 48.953899], [-55.653051, 48.953852], [-55.652837, 48.953697], [-55.652507, 48.95327], [-55.651458, 48.951621], [-55.651399, 48.951269], [-55.651518, 48.950938], [-55.651785, 48.950635], [-55.652204, 48.950289]]]}}, {"type": "Feature", "properties": {"street": "Cromer Avenue", "NID": "5a8da59814e74a76819cf4747fb3d010", "L_STNAME_C": "Cromer Avenue", "R_STNAME_C": "Cromer Avenue", "L_PLACENAM": "Grand Falls-Windsor", "R_PLACENAM": "Grand Falls-Windsor", "ROADCLASS": "Collector"}, "geometry": {"type": "MultiLineString", "coordinates": [[[-55.652553, 48.950032], [-55.653138, 48.949607]]]}}, {"type": "Feature", "properties": {"street": "Cromer Avenue", "NID": "9772f585f7724ecda887f9b931b366b2", "L_STNAME_C": "Cromer Avenue", "R_STNAME_C": "Cromer Avenue", "L_PLACENAM": "Grand Falls-Windsor", "R_PLACENAM": "Grand Falls-Windsor", "ROADCLASS": "Collector"}, "geometry": {"type": "MultiLineString", "coordinates": [[[-55.663815, 48.938001], [-55.663868, 48.938037], [-55.66417, 48.938005]]]}}, {"type": "Feature", "properties": {"street": "Cromer Avenue", "NID": "151f74b5ecf74b19923375a38cb55184", "L_STNAME_C": "Cromer Avenue", "R_STNAME_C": "Cromer Avenue", "L_PLACENAM": "Grand Falls-Windsor", "R_PLACENAM": "Grand Falls-Windsor", "ROADCLASS": "Collector"}, "geometry": {"type": "MultiLineString", "coordinates": [[[-55.656464, 48.943259], [-55.657192, 48.942575]]]}}, {"type": "Feature", "properties": {"street": "Cromer Avenue", "NID": "ab2248ccc5f84630a0dee0b081c645b4", "L_STNAME_C": "Cromer Avenue", "R_STNAME_C": "Cromer Avenue", "L_PLACENAM": "Grand Falls-Windsor", "R_PLACENAM": "Grand Falls-Windsor", "ROADCLASS": "Collector"}, "geometry": {"type": "MultiLineString", "coordinates": [[[-55.654503, 48.954211], [-55.654353, 48.954209], [-55.653443, 48.954001], [-55.653173, 48.953899]]]}}, {"type": "Feature", "properties": {"street": "Cromer Avenue", "NID": "12c8d8724d0d4eb68a196a55a9c3d44a", "L_STNAME_C": "Cromer Avenue", "R_STNAME_C": "Cromer Avenue", "L_PLACENAM": "Grand Falls-Windsor", "R_PLACENAM": "Grand Falls-Windsor", "ROADCLASS": "Collector"}, "geometry": {"type": "MultiLineString", "coordinates": [[[-55.657192, 48.942575], [-55.657879, 48.941917], [-55.658005, 48.941783], [-55.658006, 48.941783]]]}}, {"type": "Feature", "properties": {"street": "Cromer Avenue", "NID": "a9031d653d2143379ef3db52af196401", "L_STNAME_C": "Cromer Avenue", "R_STNAME_C": "Cromer Avenue", "L_PLACENAM": "Grand Falls-Windsor", "R_PLACENAM": "Grand Falls-Windsor", "ROADCLASS": "Collector"}, "geometry": {"type": "MultiLineString", "coordinates": [[[-55.653138, 48.949607], [-55.653976, 48.948906], [-55.654176, 48.948603], [-55.654267, 48.948244], [-55.65424, 48.947731], [-55.654035, 48.946739], [-55.654094, 48.946056]]]}}, {"type": "Feature", "properties": {"street": "Cromer Avenue", "NID": "0fb243897629427db2c4cdf2de3f3fa9", "L_STNAME_C": "Cromer Avenue", "R_STNAME_C": "Cromer Avenue", "L_PLACENAM": "Grand Falls-Windsor", "R_PLACENAM": "Grand Falls-Windsor", "ROADCLASS": "Collector"}, "geometry": {"type": "MultiLineString", "coordinates": [[[-55.652204, 48.950289], [-55.652553, 48.950032]]]}}, {"type": "Feature", "properties": {"street": "Hardy Avenue", "NID": "e801cf3a7b8e44c3b365eda082c41570", "L_STNAME_C": "Hardy Avenue", "R_STNAME_C": "Hardy Avenue", "L_PLACENAM": "Grand Falls-Windsor", "R_PLACENAM": "Grand Falls-Windsor", "ROADCLASS": "Collector"}, "geometry": {"type": "MultiLineString", "coordinates": [[[-55.62136, 48.953343], [-55.62175, 48.953581], [-55.623489, 48.954421], [-55.624165, 48.95469], [-55.625046, 48.954925], [-55.625495, 48.954994], [-55.626559, 48.955042], [-55.627284, 48.955015], [-55.628038, 48.954925], [-55.629193, 48.954624], [-55.631535, 48.953923]]]}}, {"type": "Feature", "properties": {"street": "Hardy Avenue", "NID": "1efce2b6a69a4dccb0bf7d25e99b4e8e", "L_STNAME_C": "Hardy Avenue", "R_STNAME_C": "Hardy Avenue", "L_PLACENAM": "Grand Falls-Windsor", "R_PLACENAM": "Grand Falls-Windsor", "ROADCLASS": "Collector"}, "geometry": {"type": "MultiLineString", "coordinates": [[[-55.642637, 48.952039], [-55.645491, 48.952063], [-55.645971, 48.951997], [-55.646081, 48.951953]]]}}, {"type": "Feature", "properties": {"street": "Hardy Avenue", "NID": "44e910e32bf542ceb3ad3b3b2859e8a9", "L_STNAME_C": "Hardy Avenue", "R_STNAME_C": "Hardy Avenue", "L_PLACENAM": "Grand Falls-Windsor", "R_PLACENAM": "Grand Falls-Windsor", "ROADCLASS": "Collector"}, "geometry": {"type": "MultiLineString", "coordinates": [[[-55.646081, 48.951953], [-55.646233, 48.951901], [-55.646747, 48.951574], [-55.650385, 48.948882]]]}}, {"type": "Feature", "properties": {"street": "Hardy Avenue", "NID": "75ab4ce61f2d40cbb45932119ef0c51b", "L_STNAME_C": "Hardy Avenue", "R_STNAME_C": "Hardy Avenue", "L_PLACENAM": "Grand Falls-Windsor", "R_PLACENAM": "Grand Falls-Windsor", "ROADCLASS": "Collector"}, "geometry": {"type": "MultiLineString", "coordinates": [[[-55.619167, 48.950654], [-55.620002, 48.952076], [-55.620491, 48.952667], [-55.621052, 48.95315], [-55.62136, 48.953343]]]}}, {"type": "Feature", "properties": {"street": "Hardy Avenue", "NID": "474b621214d04f6d9ff9358273527b60", "L_STNAME_C": "Hardy Avenue", "R_STNAME_C": "Hardy Avenue", "L_PLACENAM": "Grand Falls-Windsor", "R_PLACENAM": "Grand Falls-Windsor", "ROADCLASS": "Collector"}, "geometry": {"type": "MultiLineString", "coordinates": [[[-55.638511, 48.952071], [-55.638935, 48.95204], [-55.640342, 48.952021], [-55.642637, 48.952039]]]}}, {"type": "Feature", "properties": {"street": "Hardy Avenue", "NID": "0c6eb2a52d1b461cadad38d07168b08b", "L_STNAME_C": "Hardy Avenue", "R_STNAME_C": "Hardy Avenue", "L_PLACENAM": "Grand Falls-Windsor", "R_PLACENAM": "Grand Falls-Windsor", "ROADCLASS": "Collector"}, "geometry": {"type": "MultiLineString", "coordinates": [[[-55.631535, 48.953923], [-55.636548, 48.952435], [-55.637153, 48.95228], [-55.63821, 48.952095], [-55.638511, 48.952071]]]}}, {"type": "Feature", "properties": {"street": "Harris Avenue", "NID": "59f4988c1ca54b339f56c7f1102578db", "L_STNAME_C": "Harris Avenue", "R_STNAME_C": "Harris Avenue", "L_PLACENAM": "Grand Falls-Windsor", "R_PLACENAM": "Grand Falls-Windsor", "ROADCLASS": "Collector"}, "geometry": {"type": "MultiLineString", "coordinates": [[[-55.652553, 48.950032], [-55.652351, 48.949931], [-55.652012, 48.949837]]]}}, {"type": "Feature", "properties": {"street": "Harris Avenue", "NID": "1ddfa11ecd1145158341c874ac3f7342", "L_STNAME_C": "Harris Avenue", "R_STNAME_C": "Harris Avenue", "L_PLACENAM": "Grand Falls-Windsor", "R_PLACENAM": "Grand Falls-Windsor", "ROADCLASS": "Collector"}, "geometry": {"type": "MultiLineString", "coordinates": [[[-55.644808, 48.937455], [-55.644921, 48.937285], [-55.644993, 48.93716], [-55.645136, 48.936928]]]}}, {"type": "Feature", "properties": {"street": "Harris Avenue", "NID": "673fdda111bd453ea530d7ef370024f6", "L_STNAME_C": "Harris Avenue", "R_STNAME_C": "Harris Avenue", "L_PLACENAM": "Grand Falls-Windsor", "R_PLACENAM": "Grand Falls-Windsor", "ROADCLASS": "Collector"}, "geometry": {"type": "MultiLineString", "coordinates": [[[-55.647184, 48.945516], [-55.647218, 48.944779], [-55.647046, 48.944057], [-55.64673, 48.943127]]]}}, {"type": "Feature", "properties": {"street": "Harris Avenue", "NID": "3a5b2e3f392d4994b4caaaed43324a39", "L_STNAME_C": "Harris Avenue", "R_STNAME_C": "Harris Avenue", "L_PLACENAM": "Grand Falls-Windsor", "R_PLACENAM": "Grand Falls-Windsor", "ROADCLASS": "Collector"}, "geometry": {"type": "MultiLineString", "coordinates": [[[-55.648113, 48.947524], [-55.647779, 48.947259], [-55.6475, 48.946968], [-55.647266, 48.946534], [-55.647169, 48.946083], [-55.647184, 48.945516]]]}}, {"type": "Feature", "properties": {"street": "Harris Avenue", "NID": "3cb801fd32874e2a93ac3b486a7ecb77", "L_STNAME_C": "Harris Avenue", "R_STNAME_C": "Harris Avenue", "L_PLACENAM": "Grand Falls-Windsor", "R_PLACENAM": "Grand Falls-Windsor", "ROADCLASS": "Collector"}, "geometry": {"type": "MultiLineString", "coordinates": [[[-55.645791, 48.935928], [-55.64606, 48.93558]]]}}, {"type": "Feature", "properties": {"street": "Harris Avenue", "NID": "1ddfa11ecd1145158341c874ac3f7342", "L_STNAME_C": "Harris Avenue", "R_STNAME_C": "Harris Avenue", "L_PLACENAM": "Grand Falls-Windsor", "R_PLACENAM": "Grand Falls-Windsor", "ROADCLASS": "Collector"}, "geometry": {"type": "MultiLineString", "coordinates": [[[-55.645155, 48.939258], [-55.644847, 48.938508], [-55.644735, 48.938111], [-55.644714, 48.937868], [-55.644807, 48.937455], [-55.644808, 48.937455]]]}}, {"type": "Feature", "properties": {"street": "Harris Avenue", "NID": "1ddfa11ecd1145158341c874ac3f7342", "L_STNAME_C": "Harris Avenue", "R_STNAME_C": "Harris Avenue", "L_PLACENAM": "Grand Falls-Windsor", "R_PLACENAM": "Grand Falls-Windsor", "ROADCLASS": "Collector"}, "geometry": {"type": "MultiLineString", "coordinates": [[[-55.645136, 48.936928], [-55.645136, 48.936928], [-55.645606, 48.936205]]]}}, {"type": "Feature", "properties": {"street": "Harris Avenue", "NID": "3ce624b7f28f45648c198b8ac0ea6cbd", "L_STNAME_C": "Harris Avenue", "R_STNAME_C": "Harris Avenue", "L_PLACENAM": "Grand Falls-Windsor", "R_PLACENAM": "Grand Falls-Windsor", "ROADCLASS": "Collector"}, "geometry": {"type": "MultiLineString", "coordinates": [[[-55.650385, 48.948882], [-55.648113, 48.947524]]]}}, {"type": "Feature", "properties": {"street": "Harris Avenue", "NID": "f96b3836f4864901b461756ec1c0d14c", "L_STNAME_C": "Harris Avenue", "R_STNAME_C": "Harris Avenue", "L_PLACENAM": "Grand Falls-Windsor", "R_PLACENAM": "Grand Falls-Windsor", "ROADCLASS": "Collector"}, "geometry": {"type": "MultiLineString", "coordinates": [[[-55.64673, 48.943127], [-55.646103, 48.941554]]]}}, {"type": "Feature", "properties": {"street": "Harris Avenue", "NID": "3384abc444cc415786d3f0ebb39db0bd", "L_STNAME_C": "Harris Avenue", "R_STNAME_C": "Harris Avenue", "L_PLACENAM": "Grand Falls-Windsor", "R_PLACENAM": "Grand Falls-Windsor", "ROADCLASS": "Collector"}, "geometry": {"type": "MultiLineString", "coordinates": [[[-55.652012, 48.949837], [-55.650385, 48.948882]]]}}, {"type": "Feature", "properties": {"street": "Harris Avenue", "NID": "9802e4a711114beaa618529351b97b41", "L_STNAME_C": "Harris Avenue", "R_STNAME_C": "Harris Avenue", "L_PLACENAM": "Grand Falls-Windsor", "R_PLACENAM": "Grand Falls-Windsor", "ROADCLASS": "Collector"}, "geometry": {"type": "MultiLineString", "coordinates": [[[-55.646103, 48.941554], [-55.645155, 48.939258]]]}}, {"type": "Feature", "properties": {"street": "Harris Avenue", "NID": "66522472b8f1499185668d47da18d136", "L_STNAME_C": "Harris Avenue", "R_STNAME_C": "Harris Avenue", "L_PLACENAM": "Grand Falls-Windsor", "R_PLACENAM": "Grand Falls-Windsor", "ROADCLASS": "Collector"}, "geometry": {"type": "MultiLineString", "coordinates": [[[-55.645606, 48.936205], [-55.645791, 48.935928]]]}}, {"type": "Feature", "properties": {"street": "Scott Avenue", "NID": "19c9c2516ebe42fba6b0af1a60317663", "L_STNAME_C": "Scott Avenue", "R_STNAME_C": "Scott Avenue", "L_PLACENAM": "Grand Falls-Windsor", "R_PLACENAM": "Grand Falls-Windsor", "ROADCLASS": "Collector"}, "geometry": {"type": "MultiLineString", "coordinates": [[[-55.617125, 48.945484], [-55.618121, 48.946989], [-55.618484, 48.947686], [-55.618723, 48.948444], [-55.618969, 48.949914], [-55.619167, 48.950654]]]}}, {"type": "Feature", "properties": {"street": "Scott Avenue", "NID": "8526e2af5fea44559e23ea6187221c5d", "L_STNAME_C": "Scott Avenue", "R_STNAME_C": "Scott Avenue", "L_PLACENAM": "Grand Falls-Windsor", "R_PLACENAM": "Grand Falls-Windsor", "ROADCLASS": "Collector"}, "geometry": {"type": "MultiLineString", "coordinates": [[[-55.619423, 48.938926], [-55.617959, 48.940501]]]}}, {"type": "Feature", "properties": {"street": "Scott Avenue", "NID": "5f860fc1ab9d40048ecdfb10d3cb1179", "L_STNAME_C": "Scott Avenue", "R_STNAME_C": "Scott Avenue", "L_PLACENAM": "Grand Falls-Windsor", "R_PLACENAM": "Grand Falls-Windsor", "ROADCLASS": "Collector"}, "geometry": {"type": "MultiLineString", "coordinates": [[[-55.656929, 48.926424], [-55.65859, 48.926578], [-55.65927, 48.926703]]]}}, {"type": "Feature", "properties": {"street": "Scott Avenue", "NID": "40b28260910f4af9952f70eb343e89c2", "L_STNAME_C": "Scott Avenue", "R_STNAME_C": "Scott Avenue", "L_PLACENAM": "Grand Falls-Windsor", "R_PLACENAM": "Grand Falls-Windsor", "ROADCLASS": "Collector"}, "geometry": {"type": "MultiLineString", "coordinates": [[[-55.617959, 48.940501], [-55.617874, 48.940599]]]}}, {"type": "Feature", "properties": {"street": "Scott Avenue", "NID": "190442e768bd467bae787be3d86f7f8a", "L_STNAME_C": "Scott Avenue", "R_STNAME_C": "Scott Avenue", "L_PLACENAM": "Grand Falls-Windsor", "R_PLACENAM": "Grand Falls-Windsor", "ROADCLASS": "Local / Street"}, "geometry": {"type": "MultiLineString", "coordinates": [[[-55.661375, 48.927114], [-55.662814, 48.927419], [-55.66299, 48.927484], [-55.66311, 48.927593]]]}}, {"type": "Feature", "properties": {"street": "Scott Avenue", "NID": "31585917b9534f838258a061f863b4b2", "L_STNAME_C": "Scott Avenue", "R_STNAME_C": "Scott Avenue", "L_PLACENAM": "Grand Falls-Windsor", "R_PLACENAM": "Grand Falls-Windsor", "ROADCLASS": "Collector"}, "geometry": {"type": "MultiLineString", "coordinates": [[[-55.628007, 48.931317], [-55.623605, 48.934307], [-55.622143, 48.935342], [-55.621372, 48.936053], [-55.621061, 48.936445], [-55.620364, 48.937565]]]}}, {"type": "Feature", "properties": {"street": "Scott Avenue", "NID": "ed01ef22a6ab427baef57f697f1aa7eb", "L_STNAME_C": "Scott Avenue", "R_STNAME_C": "Scott Avenue", "L_PLACENAM": "Grand Falls-Windsor", "R_PLACENAM": "Grand Falls-Windsor", "ROADCLASS": "Collector"}, "geometry": {"type": "MultiLineString", "coordinates": [[[-55.638056, 48.927161], [-55.631594, 48.929283], [-55.630766, 48.929615], [-55.630185, 48.929896], [-55.629463, 48.930329], [-55.628007, 48.931317]]]}}, {"type": "Feature", "properties": {"street": "Scott Avenue", "NID": "a167b9999f1246d5a60e85c1f488698c", "L_STNAME_C": "Scott Avenue", "R_STNAME_C": "Scott Avenue", "L_PLACENAM": "Grand Falls-Windsor", "R_PLACENAM": "Grand Falls-Windsor", "ROADCLASS": "Local / Street"}, "geometry": {"type": "MultiLineString", "coordinates": [[[-55.65927, 48.926703], [-55.659851, 48.926803]]]}}, {"type": "Feature", "properties": {"street": "Scott Avenue", "NID": "55899463592441e28f4229c2d69be258", "L_STNAME_C": "Scott Avenue", "R_STNAME_C": "Scott Avenue", "L_PLACENAM": "Grand Falls-Windsor", "R_PLACENAM": "Grand Falls-Windsor", "ROADCLASS": "Local / Street"}, "geometry": {"type": "MultiLineString", "coordinates": [[[-55.659851, 48.926803], [-55.661375, 48.927114]]]}}, {"type": "Feature", "properties": {"street": "Scott Avenue", "NID": "45e2e372f30142bdb2db82d06161f127", "L_STNAME_C": "Scott Avenue", "R_STNAME_C": "Scott Avenue", "L_PLACENAM": "Grand Falls-Windsor", "R_PLACENAM": "Grand Falls-Windsor", "ROADCLASS": "Collector"}, "geometry": {"type": "MultiLineString", "coordinates": [[[-55.654125, 48.926112], [-55.654805, 48.926192]]]}}, {"type": "Feature", "properties": {"street": "Scott Avenue", "NID": "6661a680a05f4042841fd96ab840d9e6", "L_STNAME_C": "Scott Avenue", "R_STNAME_C": "Scott Avenue", "L_PLACENAM": "Grand Falls-Windsor", "R_PLACENAM": "Grand Falls-Windsor", "ROADCLASS": "Collector"}, "geometry": {"type": "MultiLineString", "coordinates": [[[-55.654805, 48.926192], [-55.656929, 48.926424]]]}}, {"type": "Feature", "properties": {"street": "Scott Avenue", "NID": "b3da28ec98d2459ea0d63401374469b6", "L_STNAME_C": "Scott Avenue", "R_STNAME_C": "Scott Avenue", "L_PLACENAM": "Grand Falls-Windsor", "R_PLACENAM": "Grand Falls-Windsor", "ROADCLASS": "Collector"}, "geometry": {"type": "MultiLineString", "coordinates": [[[-55.641031, 48.926183], [-55.638056, 48.927161]]]}}, {"type": "Feature", "properties": {"street": "Scott Avenue", "NID": "165bab65b26241c29663cfd1af9e6e09", "L_STNAME_C": "Scott Avenue", "R_STNAME_C": "Scott Avenue", "L_PLACENAM": "Grand Falls-Windsor", "R_PLACENAM": "Grand Falls-Windsor", "ROADCLASS": "Collector"}, "geometry": {"type": "MultiLineString", "coordinates": [[[-55.650641, 48.925693], [-55.654125, 48.926112]]]}}, {"type": "Feature", "properties": {"street": "Scott Avenue", "NID": "c9b01db52e1c43a39abf8afaf824920b", "L_STNAME_C": "Scott Avenue", "R_STNAME_C": "Scott Avenue", "L_PLACENAM": "Grand Falls-Windsor", "R_PLACENAM": "Grand Falls-Windsor", "ROADCLASS": "Collector"}, "geometry": {"type": "MultiLineString", "coordinates": [[[-55.620364, 48.937565], [-55.620061, 48.938052], [-55.619423, 48.938926]]]}}, {"type": "Feature", "properties": {"street": "Scott Avenue", "NID": "0104a702e0944fdba8a7b7935f9f442c", "L_STNAME_C": "Scott Avenue", "R_STNAME_C": "Scott Avenue", "L_PLACENAM": "Grand Falls-Windsor", "R_PLACENAM": "Grand Falls-Windsor", "ROADCLASS": "Collector"}, "geometry": {"type": "MultiLineString", "coordinates": [[[-55.616401, 48.944467], [-55.616402, 48.944467], [-55.616467, 48.944558], [-55.616586, 48.944721], [-55.616691, 48.944866]]]}}, {"type": "Feature", "properties": {"street": "Scott Avenue", "NID": "5eb5f66b74ef4d2c96d4950d1cbf7c7b", "L_STNAME_C": "Scott Avenue", "R_STNAME_C": "Scott Avenue", "L_PLACENAM": "Grand Falls-Windsor", "R_PLACENAM": "Grand Falls-Windsor", "ROADCLASS": "Collector"}, "geometry": {"type": "MultiLineString", "coordinates": [[[-55.650641, 48.925693], [-55.646982, 48.92521], [-55.646287, 48.925148], [-55.645031, 48.92516], [-55.644181, 48.925276], [-55.643014, 48.925532], [-55.641031, 48.926183]]]}}, {"type": "Feature", "properties": {"street": "Scott Avenue", "NID": "6345db0574174f3980a8c06b4834a7c1", "L_STNAME_C": "Scott Avenue", "R_STNAME_C": "Scott Avenue", "L_PLACENAM": "Grand Falls-Windsor", "R_PLACENAM": "Grand Falls-Windsor", "ROADCLASS": "Local / Street"}, "geometry": {"type": "MultiLineString", "coordinates": [[[-55.662645, 48.928613], [-55.66296, 48.928599], [-55.663002, 48.928563], [-55.663467, 48.928506], [-55.663744, 48.928374], [-55.663926, 48.928223], [-55.663931, 48.928034], [-55.66384, 48.927862], [-55.663653, 48.927707], [-55.663288, 48.927541]]]}}, {"type": "Feature", "properties": {"street": "Scott Avenue", "NID": "0104a702e0944fdba8a7b7935f9f442c", "L_STNAME_C": "Scott Avenue", "R_STNAME_C": "Scott Avenue", "L_PLACENAM": "Grand Falls-Windsor", "R_PLACENAM": "Grand Falls-Windsor", "ROADCLASS": "Collector"}, "geometry": {"type": "MultiLineString", "coordinates": [[[-55.617874, 48.940599], [-55.616422, 48.942255], [-55.616122, 48.942737], [-55.615999, 48.94323], [-55.616027, 48.943707], [-55.616114, 48.943996], [-55.616401, 48.944467]]]}}, {"type": "Feature", "properties": {"street": "Scott Avenue", "NID": "0104a702e0944fdba8a7b7935f9f442c", "L_STNAME_C": "Scott Avenue", "R_STNAME_C": "Scott Avenue", "L_PLACENAM": "Grand Falls-Windsor", "R_PLACENAM": "Grand Falls-Windsor", "ROADCLASS": "Collector"}, "geometry": {"type": "MultiLineString", "coordinates": [[[-55.616691, 48.944866], [-55.616691, 48.944867], [-55.617125, 48.945484]]]}}, {"type": "Feature", "properties": {"street": "Beaumont Avenue", "NID": "630a67a8d7ff43a180c4e713437fa09e", "L_STNAME_C": "Beaumont Avenue", "R_STNAME_C": "Beaumont Avenue", "L_PLACENAM": "Grand Falls-Windsor", "R_PLACENAM": "Grand Falls-Windsor", "ROADCLASS": "Local / Street"}, "geometry": {"type": "MultiLineString", "coordinates": [[[-55.658621, 48.931553], [-55.659106, 48.932057]]]}}, {"type": "Feature", "properties": {"street": "Beaumont Avenue", "NID": "7e19a0bd8afc47c9882e0ba958c70a28", "L_STNAME_C": "Beaumont Avenue", "R_STNAME_C": "Beaumont Avenue", "L_PLACENAM": "Grand Falls-Windsor", "R_PLACENAM": "Grand Falls-Windsor", "ROADCLASS": "Local / Street"}, "geometry": {"type": "MultiLineString", "coordinates": [[[-55.660503, 48.933662], [-55.660754, 48.934007]]]}}, {"type": "Feature", "properties": {"street": "Beaumont Avenue", "NID": "a44f990c16ce45b58a2751d092ca4e63", "L_STNAME_C": "Beaumont Avenue", "R_STNAME_C": "Beaumont Avenue", "L_PLACENAM": "Grand Falls-Windsor", "R_PLACENAM": "Grand Falls-Windsor", "ROADCLASS": "Local / Street"}, "geometry": {"type": "MultiLineString", "coordinates": [[[-55.658298, 48.930371], [-55.658362, 48.930506], [-55.658505, 48.931309], [-55.658621, 48.931553]]]}}, {"type": "Feature", "properties": {"street": "Beaumont Avenue", "NID": "acfdf5fafbb34b8fbf7daf4683516601", "L_STNAME_C": "Beaumont Avenue", "R_STNAME_C": "Beaumont Avenue", "L_PLACENAM": "Grand Falls-Windsor", "R_PLACENAM": "Grand Falls-Windsor", "ROADCLASS": "Local / Street"}, "geometry": {"type": "MultiLineString", "coordinates": [[[-55.65967, 48.932645], [-55.660503, 48.933662]]]}}, {"type": "Feature", "properties": {"street": "Beaumont Avenue", "NID": "4e379a603e084d129af5fa9f5e0ec207", "L_STNAME_C": "Beaumont Avenue", "R_STNAME_C": "Beaumont Avenue", "L_PLACENAM": "Grand Falls-Windsor", "R_PLACENAM": "Grand Falls-Windsor", "ROADCLASS": "Local / Street"}, "geometry": {"type": "MultiLineString", "coordinates": [[[-55.657967, 48.928937], [-55.657947, 48.929206], [-55.65811, 48.929739], [-55.658181, 48.930145], [-55.658298, 48.930371]]]}}, {"type": "Feature", "properties": {"street": "Beaumont Avenue", "NID": "630a67a8d7ff43a180c4e713437fa09e", "L_STNAME_C": "Beaumont Avenue", "R_STNAME_C": "Beaumont Avenue", "L_PLACENAM": "Grand Falls-Windsor", "R_PLACENAM": "Grand Falls-Windsor", "ROADCLASS": "Local / Street"}, "geometry": {"type": "MultiLineString", "coordinates": [[[-55.659106, 48.932057], [-55.65967, 48.932645]]]}}, {"type": "Feature", "properties": {"street": "High Street", "NID": "352afd6704f944baad9404184c846487", "L_STNAME_C": "High Street", "R_STNAME_C": "High Street", "L_PLACENAM": "Grand Falls-Windsor", "R_PLACENAM": "Grand Falls-Windsor", "ROADCLASS": "Collector"}, "geometry": {"type": "MultiLineString", "coordinates": [[[-55.656147, 48.927566], [-55.655506, 48.927567]]]}}, {"type": "Feature", "properties": {"street": "High Street", "NID": "6efcc9f05a5841088685ddd587f1dde4", "L_STNAME_C": "High Street", "R_STNAME_C": "High Street", "L_PLACENAM": "Grand Falls-Windsor", "R_PLACENAM": "Grand Falls-Windsor", "ROADCLASS": "Collector"}, "geometry": {"type": "MultiLineString", "coordinates": [[[-55.657607, 48.92761], [-55.658601, 48.927729], [-55.659906, 48.927934]]]}}, {"type": "Feature", "properties": {"street": "High Street", "NID": "69edf23a4093405cb70afd119d82f6c4", "L_STNAME_C": "High Street", "R_STNAME_C": "High Street", "L_PLACENAM": "Grand Falls-Windsor", "R_PLACENAM": "Grand Falls-Windsor", "ROADCLASS": "Collector"}, "geometry": {"type": "MultiLineString", "coordinates": [[[-55.655506, 48.927567], [-55.655453, 48.927495], [-55.655036, 48.927265], [-55.654607, 48.926954], [-55.654329, 48.926663]]]}}, {"type": "Feature", "properties": {"street": "High Street", "NID": "0832df7f1b8e496d8dc53c331f4416e3", "L_STNAME_C": "High Street", "R_STNAME_C": "High Street", "L_PLACENAM": "Grand Falls-Windsor", "R_PLACENAM": "Grand Falls-Windsor", "ROADCLASS": "Collector"}, "geometry": {"type": "MultiLineString", "coordinates": [[[-55.657607, 48.92761], [-55.657308, 48.92757], [-55.656147, 48.927566]]]}}, {"type": "Feature", "properties": {"street": "Bayley Street", "NID": "0d2b09dc8998468b8ce5301668663831", "L_STNAME_C": "Bayley Street", "R_STNAME_C": "Bayley Street", "L_PLACENAM": "Grand Falls-Windsor", "R_PLACENAM": "Grand Falls-Windsor", "ROADCLASS": "Local / Street"}, "geometry": {"type": "MultiLineString", "coordinates": [[[-55.648113, 48.947524], [-55.647137, 48.948277], [-55.643054, 48.951243], [-55.64283, 48.951447], [-55.642688, 48.951653], [-55.642637, 48.952039]]]}}, {"type": "Feature", "properties": {"street": "Duggan Street", "NID": "2b22534038ab4456bbd8380914a7c751", "L_STNAME_C": "Duggan Street", "R_STNAME_C": "Duggan Street", "L_PLACENAM": "Grand Falls-Windsor", "R_PLACENAM": "Grand Falls-Windsor", "ROADCLASS": "Collector"}, "geometry": {"type": "MultiLineString", "coordinates": [[[-55.6626, 48.946155], [-55.66194, 48.945796], [-55.657894, 48.943896], [-55.656464, 48.943259]]]}}, {"type": "Feature", "properties": {"street": "Duggan Street", "NID": "9f074fd03e3a4e4d8d7403446e2267bc", "L_STNAME_C": "Duggan Street", "R_STNAME_C": "Duggan Street", "L_PLACENAM": "Grand Falls-Windsor", "R_PLACENAM": "Grand Falls-Windsor", "ROADCLASS": "Local / Street"}, "geometry": {"type": "MultiLineString", "coordinates": [[[-55.653138, 48.949607], [-55.653734, 48.949776], [-55.654144, 48.949799], [-55.660248, 48.94781]]]}}, {"type": "Feature", "properties": {"street": "Duggan Street", "NID": "caf4ee0a6fc44c1190b6400676259b3a", "L_STNAME_C": "Duggan Street", "R_STNAME_C": "Duggan Street", "L_PLACENAM": "Grand Falls-Windsor", "R_PLACENAM": "Grand Falls-Windsor", "ROADCLASS": "Collector"}, "geometry": {"type": "MultiLineString", "coordinates": [[[-55.660248, 48.94781], [-55.660951, 48.947566], [-55.661532, 48.947294], [-55.661978, 48.946948], [-55.662443, 48.946396], [-55.662488, 48.946244], [-55.6626, 48.946155]]]}}, {"type": "Feature", "properties": {"street": "Carmelite Road", "NID": "2f8e3243e2ac4653a52173a963273941", "L_STNAME_C": "Carmelite Road", "R_STNAME_C": "Carmelite Road", "L_PLACENAM": "Grand Falls-Windsor", "R_PLACENAM": "Grand Falls-Windsor", "ROADCLASS": "Local / Street"}, "geometry": {"type": "MultiLineString", "coordinates": [[[-55.662622, 48.929494], [-55.662705, 48.929813]]]}}, {"type": "Feature", "properties": {"street": "Carmelite Road", "NID": "c285bea9bbea4999acb793448c4ea432", "L_STNAME_C": "Carmelite Road", "R_STNAME_C": "Carmelite Road", "L_PLACENAM": "Grand Falls-Windsor", "R_PLACENAM": "Grand Falls-Windsor", "ROADCLASS": "Local / Street"}, "geometry": {"type": "MultiLineString", "coordinates": [[[-55.662645, 48.928613], [-55.662513, 48.928989], [-55.662622, 48.929494]]]}}, {"type": "Feature", "properties": {"street": "Carmelite Road", "NID": "b62bf2a65e1648039f1b39e664d940b3", "L_STNAME_C": "Carmelite Road", "R_STNAME_C": "Carmelite Road", "L_PLACENAM": "Grand Falls-Windsor", "R_PLACENAM": "Grand Falls-Windsor", "ROADCLASS": "Local / Street"}, "geometry": {"type": "MultiLineString", "coordinates": [[[-55.661821, 48.931887], [-55.66162, 48.932245]]]}}, {"type": "Feature", "properties": {"street": "Carmelite Road", "NID": "830fb281eef0444294f0bcc1a13cef49", "L_STNAME_C": "Carmelite Road", "R_STNAME_C": "Carmelite Road", "L_PLACENAM": "Grand Falls-Windsor", "R_PLACENAM": "Grand Falls-Windsor", "ROADCLASS": "Local / Street"}, "geometry": {"type": "MultiLineString", "coordinates": [[[-55.662746, 48.928443], [-55.662645, 48.928613]]]}}, {"type": "Feature", "properties": {"street": "Carmelite Road", "NID": "1907e9b3dc98414e807186559e801af7", "L_STNAME_C": "Carmelite Road", "R_STNAME_C": "Carmelite Road", "L_PLACENAM": "Grand Falls-Windsor", "R_PLACENAM": "Grand Falls-Windsor", "ROADCLASS": "Local / Street"}, "geometry": {"type": "MultiLineString", "coordinates": [[[-55.66311, 48.927593], [-55.663132, 48.927773], [-55.662746, 48.928443]]]}}, {"type": "Feature", "properties": {"street": "Carmelite Road", "NID": "2f8e3243e2ac4653a52173a963273941", "L_STNAME_C": "Carmelite Road", "R_STNAME_C": "Carmelite Road", "L_PLACENAM": "Grand Falls-Windsor", "R_PLACENAM": "Grand Falls-Windsor", "ROADCLASS": "Local / Street"}, "geometry": {"type": "MultiLineString", "coordinates": [[[-55.662801, 48.930185], [-55.662882, 48.930496]]]}}, {"type": "Feature", "properties": {"street": "Carmelite Road", "NID": "f8e2df3767454e9ba322d1bcca893830", "L_STNAME_C": "Carmelite Road", "R_STNAME_C": "Carmelite Road", "L_PLACENAM": "Grand Falls-Windsor", "R_PLACENAM": "Grand Falls-Windsor", "ROADCLASS": "Collector"}, "geometry": {"type": "MultiLineString", "coordinates": [[[-55.661591, 48.933324], [-55.661645, 48.933873], [-55.661709, 48.934036]]]}}, {"type": "Feature", "properties": {"street": "Carmelite Road", "NID": "368c47d8bd074156b92f4bc3502bbc1d", "L_STNAME_C": "Carmelite Road", "R_STNAME_C": "Carmelite Road", "L_PLACENAM": "Grand Falls-Windsor", "R_PLACENAM": "Grand Falls-Windsor", "ROADCLASS": "Local / Street"}, "geometry": {"type": "MultiLineString", "coordinates": [[[-55.662882, 48.930496], [-55.662878, 48.930631], [-55.661949, 48.931691], [-55.661821, 48.931887]]]}}, {"type": "Feature", "properties": {"street": "Carmelite Road", "NID": "0c332343b8864342a8f7af7ea4948aa6", "L_STNAME_C": "Carmelite Road", "R_STNAME_C": "Carmelite Road", "L_PLACENAM": "Grand Falls-Windsor", "R_PLACENAM": "Grand Falls-Windsor", "ROADCLASS": "Collector"}, "geometry": {"type": "MultiLineString", "coordinates": [[[-55.661591, 48.933324], [-55.661571, 48.932559], [-55.66162, 48.932245]]]}}, {"type": "Feature", "properties": {"street": "Carmelite Road", "NID": "2f8e3243e2ac4653a52173a963273941", "L_STNAME_C": "Carmelite Road", "R_STNAME_C": "Carmelite Road", "L_PLACENAM": "Grand Falls-Windsor", "R_PLACENAM": "Grand Falls-Windsor", "ROADCLASS": "Local / Street"}, "geometry": {"type": "MultiLineString", "coordinates": [[[-55.662705, 48.929813], [-55.662801, 48.930185]]]}}, {"type": "Feature", "properties": {"street": "Memorial Avenue", "NID": "2d384c93ca4f48359747219f00b3c2f7", "L_STNAME_C": "Memorial Avenue", "R_STNAME_C": "Memorial Avenue", "L_PLACENAM": "Grand Falls-Windsor", "R_PLACENAM": "Grand Falls-Windsor", "ROADCLASS": "Local / Street"}, "geometry": {"type": "MultiLineString", "coordinates": [[[-55.650835, 48.935279], [-55.650778, 48.935312]]]}}, {"type": "Feature", "properties": {"street": "Memorial Avenue", "NID": "b795b5acfaa64cf4b59dbbf6a1b9725b", "L_STNAME_C": "Memorial Avenue", "R_STNAME_C": "Memorial Avenue", "L_PLACENAM": "Grand Falls-Windsor", "R_PLACENAM": "Grand Falls-Windsor", "ROADCLASS": "Local / Street"}, "geometry": {"type": "MultiLineString", "coordinates": [[[-55.649537, 48.935774], [-55.648892, 48.936369]]]}}, {"type": "Feature", "properties": {"street": "Memorial Avenue", "NID": "4c9bc274d1424d279b7475aaf7a585ba", "L_STNAME_C": "Memorial Avenue", "R_STNAME_C": "Memorial Avenue", "L_PLACENAM": "Grand Falls-Windsor", "R_PLACENAM": "Grand Falls-Windsor", "ROADCLASS": "Local / Street"}, "geometry": {"type": "MultiLineString", "coordinates": [[[-55.656685, 48.934004], [-55.654477, 48.933826]]]}}, {"type": "Feature", "properties": {"street": "Memorial Avenue", "NID": "052317f8effe450188afa07c622cbea0", "L_STNAME_C": "Memorial Avenue", "R_STNAME_C": "Memorial Avenue", "L_PLACENAM": "Grand Falls-Windsor", "R_PLACENAM": "Grand Falls-Windsor", "ROADCLASS": "Local / Street"}, "geometry": {"type": "MultiLineString", "coordinates": [[[-55.654477, 48.933826], [-55.654013, 48.933829], [-55.653766, 48.933862], [-55.652743, 48.934336]]]}}, {"type": "Feature", "properties": {"street": "Memorial Avenue", "NID": "d85290542f5a45c09832b248f81e4d7c", "L_STNAME_C": "Memorial Avenue", "R_STNAME_C": "Memorial Avenue", "L_PLACENAM": "Grand Falls-Windsor", "R_PLACENAM": "Grand Falls-Windsor", "ROADCLASS": "Collector"}, "geometry": {"type": "MultiLineString", "coordinates": [[[-55.646808, 48.93567], [-55.646809, 48.935671], [-55.64746, 48.936335], [-55.647643, 48.936634], [-55.647769, 48.937013]]]}}, {"type": "Feature", "properties": {"street": "Memorial Avenue", "NID": "b10e83c8dbd54b0dbcef321b2d1cdb40", "L_STNAME_C": "Memorial Avenue", "R_STNAME_C": "Memorial Avenue", "L_PLACENAM": "Grand Falls-Windsor", "R_PLACENAM": "Grand Falls-Windsor", "ROADCLASS": "Local / Street"}, "geometry": {"type": "MultiLineString", "coordinates": [[[-55.652743, 48.934336], [-55.651397, 48.934999]]]}}, {"type": "Feature", "properties": {"street": "Memorial Avenue", "NID": "91f0dc1c69d14d6db58f0f2e724a7a8c", "L_STNAME_C": "Memorial Avenue", "R_STNAME_C": "Memorial Avenue", "L_PLACENAM": "Grand Falls-Windsor", "R_PLACENAM": "Grand Falls-Windsor", "ROADCLASS": "Local / Street"}, "geometry": {"type": "MultiLineString", "coordinates": [[[-55.658904, 48.934255], [-55.658347, 48.934141], [-55.656685, 48.934004]]]}}, {"type": "Feature", "properties": {"street": "Memorial Avenue", "NID": "8ae4e3c1cd0b46a8936f224d306316ae", "L_STNAME_C": "Memorial Avenue", "R_STNAME_C": "Memorial Avenue", "L_PLACENAM": "Grand Falls-Windsor", "R_PLACENAM": "Grand Falls-Windsor", "ROADCLASS": "Local / Street"}, "geometry": {"type": "MultiLineString", "coordinates": [[[-55.662028, 48.934354], [-55.661655, 48.934521], [-55.660989, 48.934918], [-55.660783, 48.934952], [-55.660674, 48.934932], [-55.659243, 48.93434], [-55.658904, 48.934255]]]}}, {"type": "Feature", "properties": {"street": "Memorial Avenue", "NID": "05cabc8f932c49daae9c39120ea8eb9e", "L_STNAME_C": "Memorial Avenue", "R_STNAME_C": "Memorial Avenue", "L_PLACENAM": "Grand Falls-Windsor", "R_PLACENAM": "Grand Falls-Windsor", "ROADCLASS": "Local / Street"}, "geometry": {"type": "MultiLineString", "coordinates": [[[-55.651397, 48.934999], [-55.650835, 48.935279]]]}}, {"type": "Feature", "properties": {"street": "Memorial Avenue", "NID": "535ca6964dc94af1960dc7a522c4b2c4", "L_STNAME_C": "Memorial Avenue", "R_STNAME_C": "Memorial Avenue", "L_PLACENAM": "Grand Falls-Windsor", "R_PLACENAM": "Grand Falls-Windsor", "ROADCLASS": "Local / Street"}, "geometry": {"type": "MultiLineString", "coordinates": [[[-55.650778, 48.935312], [-55.649712, 48.935857]]]}}, {"type": "Feature", "properties": {"street": "Main Street", "NID": "3ff389a674fa4b9eb4cbfdc83c2ddd99", "L_STNAME_C": "Main Street", "R_STNAME_C": "Main Street", "L_PLACENAM": "Grand Falls-Windsor", "R_PLACENAM": "Grand Falls-Windsor", "ROADCLASS": "Collector"}, "geometry": {"type": "MultiLineString", "coordinates": [[[-55.66536, 48.948157], [-55.666706, 48.947363], [-55.667204, 48.947117]]]}}, {"type": "Feature", "properties": {"street": "Main Street", "NID": "66994ef2955b42a3980ceb534ad9aaba", "L_STNAME_C": "Main Street", "R_STNAME_C": "Main Street", "L_PLACENAM": "Grand Falls-Windsor", "R_PLACENAM": "Grand Falls-Windsor", "ROADCLASS": "Collector"}, "geometry": {"type": "MultiLineString", "coordinates": [[[-55.656941, 48.951415], [-55.657165, 48.951201], [-55.65747, 48.951034], [-55.658201, 48.950782]]]}}, {"type": "Feature", "properties": {"street": "Main Street", "NID": "d37885123a754535af8f14ec9b2a447c", "L_STNAME_C": "Main Street", "R_STNAME_C": "Main Street", "L_PLACENAM": "Grand Falls-Windsor", "R_PLACENAM": "Grand Falls-Windsor", "ROADCLASS": "Local / Street"}, "geometry": {"type": "MultiLineString", "coordinates": [[[-55.651721, 48.957411], [-55.651838, 48.957293], [-55.651965, 48.957141], [-55.652597, 48.956501]]]}}, {"type": "Feature", "properties": {"street": "Main Street", "NID": "28cfe7696c7849c4ad93e88930e3edde", "L_STNAME_C": "Main Street", "R_STNAME_C": "Main Street", "L_PLACENAM": "Grand Falls-Windsor", "R_PLACENAM": "Grand Falls-Windsor", "ROADCLASS": "Collector"}, "geometry": {"type": "MultiLineString", "coordinates": [[[-55.678217, 48.947459], [-55.679002, 48.947234]]]}}, {"type": "Feature", "properties": {"street": "Main Street", "NID": "dbc11c95cb934a36a7ea071172711b9f", "L_STNAME_C": "Main Street", "R_STNAME_C": "Main Street", "L_PLACENAM": "Grand Falls-Windsor", "R_PLACENAM": "Grand Falls-Windsor", "ROADCLASS": "Collector"}, "geometry": {"type": "MultiLineString", "coordinates": [[[-55.660281, 48.95014], [-55.661038, 48.949924], [-55.661453, 48.949713]]]}}, {"type": "Feature", "properties": {"street": "Main Street", "NID": "0efacb6b1cad4152870ea877ff56e966", "L_STNAME_C": "Main Street", "R_STNAME_C": "Main Street", "L_PLACENAM": "Grand Falls-Windsor", "R_PLACENAM": "Grand Falls-Windsor", "ROADCLASS": "Collector"}, "geometry": {"type": "MultiLineString", "coordinates": [[[-55.667605, 48.946959], [-55.668655, 48.946999], [-55.669726, 48.947317], [-55.670766, 48.947734], [-55.670916, 48.947762]]]}}, {"type": "Feature", "properties": {"street": "Main Street", "NID": "ca12973779c8454a98ab6f433ee9956e", "L_STNAME_C": "Main Street", "R_STNAME_C": "Main Street", "L_PLACENAM": "Grand Falls-Windsor", "R_PLACENAM": "Grand Falls-Windsor", "ROADCLASS": "Local / Street"}, "geometry": {"type": "MultiLineString", "coordinates": [[[-55.654232, 48.954649], [-55.654503, 48.954211]]]}}, {"type": "Feature", "properties": {"street": "Main Street", "NID": "b62de2a469dc4f478fbd263390db97f7", "L_STNAME_C": "Main Street", "R_STNAME_C": "Main Street", "L_PLACENAM": "Grand Falls-Windsor", "R_PLACENAM": "Grand Falls-Windsor", "ROADCLASS": "Collector"}, "geometry": {"type": "MultiLineString", "coordinates": [[[-55.672824, 48.947919], [-55.673384, 48.947926]]]}}, {"type": "Feature", "properties": {"street": "Main Street", "NID": "458109684bda4b0f8e45030587b29ca9", "L_STNAME_C": "Main Street", "R_STNAME_C": "Main Street", "L_PLACENAM": "Grand Falls-Windsor", "R_PLACENAM": "Grand Falls-Windsor", "ROADCLASS": "Collector"}, "geometry": {"type": "MultiLineString", "coordinates": [[[-55.658611, 48.950655], [-55.659096, 48.950504]]]}}, {"type": "Feature", "properties": {"street": "Main Street", "NID": "1909ba0faaf940c4a758054b9e8fd0c1", "L_STNAME_C": "Main Street", "R_STNAME_C": "Main Street", "L_PLACENAM": "Grand Falls-Windsor", "R_PLACENAM": "Grand Falls-Windsor", "ROADCLASS": "Collector"}, "geometry": {"type": "MultiLineString", "coordinates": [[[-55.661578, 48.949651], [-55.662437, 48.949185]]]}}, {"type": "Feature", "properties": {"street": "Main Street", "NID": "079c85cc9ada422fa9425e2e6b18ad7a", "L_STNAME_C": "Main Street", "R_STNAME_C": "Main Street", "L_PLACENAM": "Grand Falls-Windsor", "R_PLACENAM": "Grand Falls-Windsor", "ROADCLASS": "Collector"}, "geometry": {"type": "MultiLineString", "coordinates": [[[-55.672141, 48.94792], [-55.672824, 48.947919]]]}}, {"type": "Feature", "properties": {"street": "Main Street", "NID": "b2f15d0210ce4caaaf9d240e291ebdfc", "L_STNAME_C": "Main Street", "R_STNAME_C": "Main Street", "L_PLACENAM": "Grand Falls-Windsor", "R_PLACENAM": "Grand Falls-Windsor", "ROADCLASS": "Local / Street"}, "geometry": {"type": "MultiLineString", "coordinates": [[[-55.652597, 48.956501], [-55.65396, 48.955113], [-55.654232, 48.954649]]]}}, {"type": "Feature", "properties": {"street": "Main Street", "NID": "17fe6ac381e94605809cce4dd7ca3663", "L_STNAME_C": "Main Street", "R_STNAME_C": "Main Street", "L_PLACENAM": "Grand Falls-Windsor", "R_PLACENAM": "Grand Falls-Windsor", "ROADCLASS": "Collector"}, "geometry": {"type": "MultiLineString", "coordinates": [[[-55.662437, 48.949185], [-55.663306, 48.948853], [-55.664752, 48.94842], [-55.66536, 48.948157]]]}}, {"type": "Feature", "properties": {"street": "Main Street", "NID": "e330375eba6c4a92a9b6e7121d07b9f7", "L_STNAME_C": "Main Street", "R_STNAME_C": "Main Street", "L_PLACENAM": "Grand Falls-Windsor", "R_PLACENAM": "Grand Falls-Windsor", "ROADCLASS": "Collector"}, "geometry": {"type": "MultiLineString", "coordinates": [[[-55.670916, 48.947762], [-55.671963, 48.947918], [-55.672141, 48.94792]]]}}, {"type": "Feature", "properties": {"street": "Main Street", "NID": "67ad32bad16a4ae4a02434bddd727b9f", "L_STNAME_C": "Main Street", "R_STNAME_C": "Main Street", "L_PLACENAM": "Grand Falls-Windsor", "R_PLACENAM": "Grand Falls-Windsor", "ROADCLASS": "Collector"}, "geometry": {"type": "MultiLineString", "coordinates": [[[-55.667204, 48.947117], [-55.667605, 48.946959]]]}}, {"type": "Feature", "properties": {"street": "Main Street", "NID": "3aa014df918141fcb5002116c8f25e80", "L_STNAME_C": "Main Street", "R_STNAME_C": "Main Street", "L_PLACENAM": "Grand Falls-Windsor", "R_PLACENAM": "Grand Falls-Windsor", "ROADCLASS": "Collector"}, "geometry": {"type": "MultiLineString", "coordinates": [[[-55.659096, 48.950504], [-55.660281, 48.95014]]]}}, {"type": "Feature", "properties": {"street": "Main Street", "NID": "458109684bda4b0f8e45030587b29ca9", "L_STNAME_C": "Main Street", "R_STNAME_C": "Main Street", "L_PLACENAM": "Grand Falls-Windsor", "R_PLACENAM": "Grand Falls-Windsor", "ROADCLASS": "Collector"}, "geometry": {"type": "MultiLineString", "coordinates": [[[-55.658201, 48.950782], [-55.658611, 48.950655]]]}}, {"type": "Feature", "properties": {"street": "Main Street", "NID": "a9826bb78b4e4590988f238026b7e0d8", "L_STNAME_C": "Main Street", "R_STNAME_C": "Main Street", "L_PLACENAM": "Grand Falls-Windsor", "R_PLACENAM": "Grand Falls-Windsor", "ROADCLASS": "Collector"}, "geometry": {"type": "MultiLineString", "coordinates": [[[-55.679002, 48.947234], [-55.679622, 48.947026]]]}}, {"type": "Feature", "properties": {"street": "Main Street", "NID": "559254f888874b89934128bc25264324", "L_STNAME_C": "Main Street", "R_STNAME_C": "Main Street", "L_PLACENAM": "Grand Falls-Windsor", "R_PLACENAM": "Grand Falls-Windsor", "ROADCLASS": "Collector"}, "geometry": {"type": "MultiLineString", "coordinates": [[[-55.673384, 48.947926], [-55.675815, 48.947927], [-55.676678, 48.947829], [-55.677515, 48.947667], [-55.678217, 48.947459]]]}}, {"type": "Feature", "properties": {"street": "Main Street", "NID": "d5b2eb9fdeb243909f1bd9edd5f58236", "L_STNAME_C": "Main Street", "R_STNAME_C": "Main Street", "L_PLACENAM": "Grand Falls-Windsor", "R_PLACENAM": "Grand Falls-Windsor", "ROADCLASS": "Collector"}, "geometry": {"type": "MultiLineString", "coordinates": [[[-55.661453, 48.949713], [-55.661578, 48.949651]]]}}, {"type": "Feature", "properties": {"street": "Main Street", "NID": "1f4d7e851f024063b562cf922b237eff", "L_STNAME_C": "Main Street", "R_STNAME_C": "Main Street", "L_PLACENAM": "Grand Falls-Windsor", "R_PLACENAM": "Grand Falls-Windsor", "ROADCLASS": "Collector"}, "geometry": {"type": "MultiLineString", "coordinates": [[[-55.654863, 48.954044], [-55.654867, 48.953873], [-55.654925, 48.953748], [-55.655446, 48.953161], [-55.656133, 48.952521], [-55.656801, 48.951539], [-55.656941, 48.951415]]]}}, {"type": "Feature", "properties": {"street": "Monchy Road", "NID": "27ec23c1496249e9affb3a2de9f7e3e0", "L_STNAME_C": "Monchy Road", "R_STNAME_C": "Monchy Road", "L_PLACENAM": "Grand Falls-Windsor", "R_PLACENAM": "Grand Falls-Windsor", "ROADCLASS": "Local / Street"}, "geometry": {"type": "MultiLineString", "coordinates": [[[-55.657713, 48.930778], [-55.657538, 48.931199], [-55.657312, 48.931493], [-55.656286, 48.932057], [-55.654633, 48.933117]]]}}, {"type": "Feature", "properties": {"street": "Monchy Road", "NID": "cf80f074eadd4accad3939e13356c957", "L_STNAME_C": "Monchy Road", "R_STNAME_C": "Monchy Road", "L_PLACENAM": "Grand Falls-Windsor", "R_PLACENAM": "Grand Falls-Windsor", "ROADCLASS": "Local / Street"}, "geometry": {"type": "MultiLineString", "coordinates": [[[-55.657831, 48.930473], [-55.657713, 48.930778]]]}}, {"type": "Feature", "properties": {"street": "Pinsent Drive", "NID": "d47a5fce08454f62b6f9d4813327d230", "L_STNAME_C": "Pinsent Drive", "R_STNAME_C": "Pinsent Drive", "L_PLACENAM": "Grand Falls-Windsor", "R_PLACENAM": "Grand Falls-Windsor", "ROADCLASS": "Local / Street"}, "geometry": {"type": "MultiLineString", "coordinates": [[[-55.647184, 48.945516], [-55.649416, 48.945308], [-55.649949, 48.945279], [-55.650263, 48.945291], [-55.650657, 48.945359], [-55.652026, 48.945744], [-55.652434, 48.94583], [-55.654094, 48.946056]]]}}, {"type": "Feature", "properties": {"street": "Sunset Drive", "NID": "2a37cee6df68488da4bfea1b343409bd", "L_STNAME_C": "Sunset Drive", "R_STNAME_C": "Sunset Drive", "L_PLACENAM": "Grand Falls-Windsor", "R_PLACENAM": "Grand Falls-Windsor", "ROADCLASS": "Local / Street"}, "geometry": {"type": "MultiLineString", "coordinates": [[[-55.665089, 48.94245], [-55.665254, 48.942398], [-55.667196, 48.942313], [-55.667713, 48.942373], [-55.668215, 48.942504], [-55.668836, 48.942755], [-55.669239, 48.94302], [-55.669573, 48.943321], [-55.669715, 48.943628], [-55.669726, 48.943727], [-55.669651, 48.943978]]]}}, {"type": "Feature", "properties": {"street": "Elizabeth Avenue", "NID": "ea0479edad7849b196fbfa250254d3c3", "L_STNAME_C": "Elizabeth Avenue", "R_STNAME_C": "Elizabeth Avenue", "L_PLACENAM": "Grand Falls-Windsor", "R_PLACENAM": "Grand Falls-Windsor", "ROADCLASS": "Local / Street"}, "geometry": {"type": "MultiLineString", "coordinates": [[[-55.670328, 48.950886], [-55.670903, 48.95029], [-55.671652, 48.949363]]]}}, {"type": "Feature", "properties": {"street": "Church Road", "NID": "0de81456ebab44908a51a63dda08642e", "L_STNAME_C": "Church Road", "R_STNAME_C": "Church Road", "L_PLACENAM": "Grand Falls-Windsor", "R_PLACENAM": "Grand Falls-Windsor", "ROADCLASS": "Collector"}, "geometry": {"type": "MultiLineString", "coordinates": [[[-55.659725, 48.930091], [-55.659889, 48.931109], [-55.660068, 48.931561], [-55.660213, 48.93176]]]}}, {"type": "Feature", "properties": {"street": "Church Road", "NID": "414b71dc86774769b82f77d5c69f2c30", "L_STNAME_C": "Church Road", "R_STNAME_C": "Church Road", "L_PLACENAM": "Grand Falls-Windsor", "R_PLACENAM": "Grand Falls-Windsor", "ROADCLASS": "Collector"}, "geometry": {"type": "MultiLineString", "coordinates": [[[-55.659906, 48.927934], [-55.659807, 48.928067], [-55.65976, 48.928292], [-55.65943, 48.928882], [-55.659381, 48.929178]]]}}, {"type": "Feature", "properties": {"street": "Church Road", "NID": "30f7d321587d4d1fb519e284cb4d6ca9", "L_STNAME_C": "Church Road", "R_STNAME_C": "Church Road", "L_PLACENAM": "Grand Falls-Windsor", "R_PLACENAM": "Grand Falls-Windsor", "ROADCLASS": "Collector"}, "geometry": {"type": "MultiLineString", "coordinates": [[[-55.659381, 48.929178], [-55.659725, 48.930091]]]}}, {"type": "Feature", "properties": {"street": "Church Road", "NID": "0de81456ebab44908a51a63dda08642e", "L_STNAME_C": "Church Road", "R_STNAME_C": "Church Road", "L_PLACENAM": "Grand Falls-Windsor", "R_PLACENAM": "Grand Falls-Windsor", "ROADCLASS": "Collector"}, "geometry": {"type": "MultiLineString", "coordinates": [[[-55.660213, 48.93176], [-55.660548, 48.93198], [-55.66162, 48.932245]]]}}, {"type": "Feature", "properties": {"street": "Exploits Avenue", "NID": "db95eb6f87d2457a813a9ae76b7168df", "L_STNAME_C": "Exploits Avenue", "R_STNAME_C": "Exploits Avenue", "L_PLACENAM": "Grand Falls-Windsor", "R_PLACENAM": "Grand Falls-Windsor", "ROADCLASS": "Local / Street"}, "geometry": {"type": "MultiLineString", "coordinates": [[[-55.663012, 48.931766], [-55.663243, 48.931805]]]}}, {"type": "Feature", "properties": {"street": "Exploits Avenue", "NID": "6d63c1b22801411ea30ce4d37c5f1960", "L_STNAME_C": "Exploits Avenue", "R_STNAME_C": "Exploits Avenue", "L_PLACENAM": "Grand Falls-Windsor", "R_PLACENAM": "Grand Falls-Windsor", "ROADCLASS": "Local / Street"}, "geometry": {"type": "MultiLineString", "coordinates": [[[-55.663243, 48.931805], [-55.664289, 48.932006], [-55.664521, 48.932008]]]}}, {"type": "Feature", "properties": {"street": "Exploits Avenue", "NID": "dbc2006cc8a449669857cd30d44ea933", "L_STNAME_C": "Exploits Avenue", "R_STNAME_C": "Exploits Avenue", "L_PLACENAM": "Grand Falls-Windsor", "R_PLACENAM": "Grand Falls-Windsor", "ROADCLASS": "Local / Street"}, "geometry": {"type": "MultiLineString", "coordinates": [[[-55.661821, 48.931887], [-55.661997, 48.931943], [-55.662492, 48.931814], [-55.662697, 48.931789], [-55.662779, 48.931808], [-55.663012, 48.931766]]]}}, {"type": "Feature", "properties": {"street": "Park Street", "NID": "50d7c8d3707b44989f56a5dadf78695d", "L_STNAME_C": "Park Street", "R_STNAME_C": "Park Street", "L_PLACENAM": "Grand Falls-Windsor", "R_PLACENAM": "Grand Falls-Windsor", "ROADCLASS": "Collector"}, "geometry": {"type": "MultiLineString", "coordinates": [[[-55.668523, 48.954032], [-55.668011, 48.954278], [-55.667759, 48.954482], [-55.666953, 48.955525]]]}}, {"type": "Feature", "properties": {"street": "Park Street", "NID": "00caaa8e54504898a7b83f96a22d5d91", "L_STNAME_C": "Park Street", "R_STNAME_C": "Park Street", "L_PLACENAM": "Grand Falls-Windsor", "R_PLACENAM": "Grand Falls-Windsor", "ROADCLASS": "Collector"}, "geometry": {"type": "MultiLineString", "coordinates": [[[-55.666586, 48.955962], [-55.666124, 48.956388]]]}}, {"type": "Feature", "properties": {"street": "Park Street", "NID": "50ef9f613f4842f29fd243081bcd23cb", "L_STNAME_C": "Park Street", "R_STNAME_C": "Park Street", "L_PLACENAM": "Grand Falls-Windsor", "R_PLACENAM": "Grand Falls-Windsor", "ROADCLASS": "Collector"}, "geometry": {"type": "MultiLineString", "coordinates": [[[-55.665352, 48.958196], [-55.665236, 48.958456], [-55.664797, 48.959027], [-55.664405, 48.959364], [-55.663739, 48.959743], [-55.663133, 48.959961], [-55.662185, 48.960139], [-55.661692, 48.960187], [-55.661201, 48.960163], [-55.660804, 48.960108]]]}}, {"type": "Feature", "properties": {"street": "Park Street", "NID": "0165441fba9f4689b3c3e98c7a15f2d5", "L_STNAME_C": "Park Street", "R_STNAME_C": "Park Street", "L_PLACENAM": "Grand Falls-Windsor", "R_PLACENAM": "Grand Falls-Windsor", "ROADCLASS": "Local / Street"}, "geometry": {"type": "MultiLineString", "coordinates": [[[-55.656113, 48.958863], [-55.656032, 48.958817], [-55.653171, 48.95801]]]}}, {"type": "Feature", "properties": {"street": "Park Street", "NID": "c7edec5981b347d1a0ec09620f5b634e", "L_STNAME_C": "Park Street", "R_STNAME_C": "Park Street", "L_PLACENAM": "Grand Falls-Windsor", "R_PLACENAM": "Grand Falls-Windsor", "ROADCLASS": "Collector"}, "geometry": {"type": "MultiLineString", "coordinates": [[[-55.665526, 48.957812], [-55.665352, 48.958196]]]}}, {"type": "Feature", "properties": {"street": "Park Street", "NID": "be1564f386b545ef88db14aa97658a79", "L_STNAME_C": "Park Street", "R_STNAME_C": "Park Street", "L_PLACENAM": "Grand Falls-Windsor", "R_PLACENAM": "Grand Falls-Windsor", "ROADCLASS": "Collector"}, "geometry": {"type": "MultiLineString", "coordinates": [[[-55.660804, 48.960108], [-55.660711, 48.960095], [-55.658171, 48.959525]]]}}, {"type": "Feature", "properties": {"street": "Park Street", "NID": "933cf0aa3f824b3fa50440b9d397aa5f", "L_STNAME_C": "Park Street", "R_STNAME_C": "Park Street", "L_PLACENAM": "Grand Falls-Windsor", "R_PLACENAM": "Grand Falls-Windsor", "ROADCLASS": "Collector"}, "geometry": {"type": "MultiLineString", "coordinates": [[[-55.658171, 48.959525], [-55.656221, 48.958918], [-55.656113, 48.958863]]]}}, {"type": "Feature", "properties": {"street": "Park Street", "NID": "781d7454f1004ff5a6359a25d7bd4732", "L_STNAME_C": "Park Street", "R_STNAME_C": "Park Street", "L_PLACENAM": "Grand Falls-Windsor", "R_PLACENAM": "Grand Falls-Windsor", "ROADCLASS": "Collector"}, "geometry": {"type": "MultiLineString", "coordinates": [[[-55.666124, 48.956388], [-55.665927, 48.95662], [-55.665694, 48.957166], [-55.665526, 48.957812]]]}}, {"type": "Feature", "properties": {"street": "Park Street", "NID": "bec27e3b4c974ebc9fd98492c08128f1", "L_STNAME_C": "Park Street", "R_STNAME_C": "Park Street", "L_PLACENAM": "Grand Falls-Windsor", "R_PLACENAM": "Grand Falls-Windsor", "ROADCLASS": "Local / Street"}, "geometry": {"type": "MultiLineString", "coordinates": [[[-55.653171, 48.95801], [-55.652833, 48.957898], [-55.651982, 48.957537], [-55.651901, 48.957491], [-55.651721, 48.957411]]]}}, {"type": "Feature", "properties": {"street": "Park Street", "NID": "fb1288ff946b45bf9da7eebea5b17e31", "L_STNAME_C": "Park Street", "R_STNAME_C": "Park Street", "L_PLACENAM": "Grand Falls-Windsor", "R_PLACENAM": "Grand Falls-Windsor", "ROADCLASS": "Collector"}, "geometry": {"type": "MultiLineString", "coordinates": [[[-55.666953, 48.955525], [-55.666586, 48.955962]]]}}, {"type": "Feature", "properties": {"street": "Queensway", "NID": "2e8768e4f799449ab970b60c32b2d450", "L_STNAME_C": "Queensway", "R_STNAME_C": "Queensway", "L_PLACENAM": "Grand Falls-Windsor", "R_PLACENAM": "Grand Falls-Windsor", "ROADCLASS": "Local / Street"}, "geometry": {"type": "MultiLineString", "coordinates": [[[-55.653171, 48.95801], [-55.652592, 48.958714], [-55.652257, 48.95898], [-55.652105, 48.95905], [-55.651747, 48.959136], [-55.651582, 48.959142]]]}}, {"type": "Feature", "properties": {"street": "Queensway", "NID": "31839b3d07384e2c8176fb917fb4919d", "L_STNAME_C": "Queensway", "R_STNAME_C": "Queensway", "L_PLACENAM": "Grand Falls-Windsor", "R_PLACENAM": "Grand Falls-Windsor", "ROADCLASS": "Local / Street"}, "geometry": {"type": "MultiLineString", "coordinates": [[[-55.647979, 48.956015], [-55.648157, 48.956521], [-55.648403, 48.957018], [-55.648758, 48.957526], [-55.649077, 48.957872], [-55.64941, 48.958164], [-55.649517, 48.958236], [-55.650148, 48.958667], [-55.650876, 48.959027], [-55.651392, 48.95915], [-55.651582, 48.959142]]]}}, {"type": "Feature", "properties": {"street": "Queensway", "NID": "d2ea7f91b1e24c3eaa4e19c8a40cd435", "L_STNAME_C": "Queensway", "R_STNAME_C": "Queensway", "L_PLACENAM": "Grand Falls-Windsor", "R_PLACENAM": "Grand Falls-Windsor", "ROADCLASS": "Local / Street"}, "geometry": {"type": "MultiLineString", "coordinates": [[[-55.647979, 48.956015], [-55.648055, 48.955746], [-55.648253, 48.955478], [-55.648587, 48.955275], [-55.648911, 48.955159]]]}}, {"type": "Feature", "properties": {"street": "Queensway", "NID": "816856ac43f9421fb2456a3b94cc1d1f", "L_STNAME_C": "Queensway", "R_STNAME_C": "Queensway", "L_PLACENAM": "Grand Falls-Windsor", "R_PLACENAM": "Grand Falls-Windsor", "ROADCLASS": "Local / Street"}, "geometry": {"type": "MultiLineString", "coordinates": [[[-55.648911, 48.955159], [-55.650699, 48.954958], [-55.651152, 48.954892], [-55.651578, 48.954789], [-55.65213, 48.954588], [-55.652434, 48.954439], [-55.653173, 48.953899]]]}}, {"type": "Feature", "properties": {"street": "Riverview Road", "NID": "fd55f69690f846098b9f23c61ce599c4", "L_STNAME_C": "Riverview Road", "R_STNAME_C": "Riverview Road", "L_PLACENAM": "Grand Falls-Windsor", "R_PLACENAM": "Grand Falls-Windsor", "ROADCLASS": "Local / Street"}, "geometry": {"type": "MultiLineString", "coordinates": [[[-55.662375, 48.934637], [-55.662737, 48.934381], [-55.662825, 48.934287]]]}}, {"type": "Feature", "properties": {"street": "Riverview Road", "NID": "fd55f69690f846098b9f23c61ce599c4", "L_STNAME_C": "Riverview Road", "R_STNAME_C": "Riverview Road", "L_PLACENAM": "Grand Falls-Windsor", "R_PLACENAM": "Grand Falls-Windsor", "ROADCLASS": "Local / Street"}, "geometry": {"type": "MultiLineString", "coordinates": [[[-55.662825, 48.934287], [-55.663089, 48.934007], [-55.663772, 48.933484], [-55.66394, 48.933297], [-55.664156, 48.932904], [-55.664253, 48.932842], [-55.664514, 48.932251], [-55.664521, 48.932008]]]}}, {"type": "Feature", "properties": {"street": "Riverview Road", "NID": "1974a868679a427588eb0999dd3ed852", "L_STNAME_C": "Riverview Road", "R_STNAME_C": "Riverview Road", "L_PLACENAM": "Grand Falls-Windsor", "R_PLACENAM": "Grand Falls-Windsor", "ROADCLASS": "Local / Street"}, "geometry": {"type": "MultiLineString", "coordinates": [[[-55.664521, 48.932008], [-55.664517, 48.931657], [-55.664736, 48.931102]]]}}, {"type": "Feature", "properties": {"street": "Smallwood Drive", "NID": "3166b72faea141a187f5cab272082b90", "L_STNAME_C": "Smallwood Drive", "R_STNAME_C": "Smallwood Drive", "L_PLACENAM": "Grand Falls-Windsor", "R_PLACENAM": "Grand Falls-Windsor", "ROADCLASS": "Local / Street"}, "geometry": {"type": "MultiLineString", "coordinates": [[[-55.657171, 48.954035], [-55.656868, 48.95414], [-55.656424, 48.954377], [-55.656256, 48.954555], [-55.655816, 48.955171]]]}}, {"type": "Feature", "properties": {"street": "Smallwood Drive", "NID": "e5bd323ff29248e09b466ec519618544", "L_STNAME_C": "Smallwood Drive", "R_STNAME_C": "Smallwood Drive", "L_PLACENAM": "Grand Falls-Windsor", "R_PLACENAM": "Grand Falls-Windsor", "ROADCLASS": "Local / Street"}, "geometry": {"type": "MultiLineString", "coordinates": [[[-55.654789, 48.956796], [-55.653924, 48.956444]]]}}, {"type": "Feature", "properties": {"street": "Smallwood Drive", "NID": "acd0a9f16ada4f73b9bc9eec707b82b7", "L_STNAME_C": "Smallwood Drive", "R_STNAME_C": "Smallwood Drive", "L_PLACENAM": "Grand Falls-Windsor", "R_PLACENAM": "Grand Falls-Windsor", "ROADCLASS": "Local / Street"}, "geometry": {"type": "MultiLineString", "coordinates": [[[-55.653924, 48.956444], [-55.65353, 48.956863]]]}}, {"type": "Feature", "properties": {"street": "Smallwood Drive", "NID": "7149feeab3264891b64563b976266639", "L_STNAME_C": "Smallwood Drive", "R_STNAME_C": "Smallwood Drive", "L_PLACENAM": "Grand Falls-Windsor", "R_PLACENAM": "Grand Falls-Windsor", "ROADCLASS": "Local / Street"}, "geometry": {"type": "MultiLineString", "coordinates": [[[-55.655619, 48.957409], [-55.655638, 48.95722], [-55.655558, 48.95712], [-55.654789, 48.956796]]]}}, {"type": "Feature", "properties": {"street": "Smallwood Drive", "NID": "980f76f5e11a4b1cbd6055ec6682b610", "L_STNAME_C": "Smallwood Drive", "R_STNAME_C": "Smallwood Drive", "L_PLACENAM": "Grand Falls-Windsor", "R_PLACENAM": "Grand Falls-Windsor", "ROADCLASS": "Local / Street"}, "geometry": {"type": "MultiLineString", "coordinates": [[[-55.65353, 48.956863], [-55.653262, 48.957183], [-55.653218, 48.957291], [-55.653244, 48.957345], [-55.653567, 48.957511], [-55.654258, 48.957726], [-55.655099, 48.957933], [-55.655182, 48.957916], [-55.655364, 48.957766], [-55.655521, 48.957488], [-55.655619, 48.957409]]]}}, {"type": "Feature", "properties": {"street": "Smallwood Drive", "NID": "c43225d066404af7818acbc7d58c54e6", "L_STNAME_C": "Smallwood Drive", "R_STNAME_C": "Smallwood Drive", "L_PLACENAM": "Grand Falls-Windsor", "R_PLACENAM": "Grand Falls-Windsor", "ROADCLASS": "Local / Street"}, "geometry": {"type": "MultiLineString", "coordinates": [[[-55.655816, 48.955171], [-55.65549, 48.95559], [-55.655173, 48.955721], [-55.654649, 48.955877], [-55.654289, 48.956062], [-55.653924, 48.956444]]]}}, {"type": "Feature", "properties": {"street": "Smallwood Drive", "NID": "6e3f7b7e03fe480fadfe8c943504a3a3", "L_STNAME_C": "Smallwood Drive", "R_STNAME_C": "Smallwood Drive", "L_PLACENAM": "Grand Falls-Windsor", "R_PLACENAM": "Grand Falls-Windsor", "ROADCLASS": "Local / Street"}, "geometry": {"type": "MultiLineString", "coordinates": [[[-55.657718, 48.953007], [-55.657943, 48.953289], [-55.65802, 48.95346], [-55.658018, 48.95355], [-55.657918, 48.953711], [-55.65782, 48.953782], [-55.657171, 48.954035]]]}}, {"type": "Feature", "properties": {"street": "Sapling Street", "NID": "dde0e377663649cb93a27c4e4da8b29d", "L_STNAME_C": "Sapling Street", "R_STNAME_C": "Sapling Street", "L_PLACENAM": "Grand Falls-Windsor", "R_PLACENAM": "Grand Falls-Windsor", "ROADCLASS": "Local / Street"}, "geometry": {"type": "MultiLineString", "coordinates": [[[-55.657323, 48.956811], [-55.65745, 48.95689], [-55.658009, 48.957419], [-55.658126, 48.957672]]]}}, {"type": "Feature", "properties": {"street": "Sapling Street", "NID": "dde0e377663649cb93a27c4e4da8b29d", "L_STNAME_C": "Sapling Street", "R_STNAME_C": "Sapling Street", "L_PLACENAM": "Grand Falls-Windsor", "R_PLACENAM": "Grand Falls-Windsor", "ROADCLASS": "Local / Street"}, "geometry": {"type": "MultiLineString", "coordinates": [[[-55.657127, 48.956689], [-55.657323, 48.956811]]]}}, {"type": "Feature", "properties": {"street": "Goodyear Avenue", "NID": "3fc9252a724f4ce38f8b338bd7ef11dc", "L_STNAME_C": "Goodyear Avenue", "R_STNAME_C": "Goodyear Avenue", "L_PLACENAM": "Grand Falls-Windsor", "R_PLACENAM": "Grand Falls-Windsor", "ROADCLASS": "Local / Street"}, "geometry": {"type": "MultiLineString", "coordinates": [[[-55.644838, 48.92926], [-55.643668, 48.929129], [-55.643614, 48.929101]]]}}, {"type": "Feature", "properties": {"street": "Goodyear Avenue", "NID": "83c5d742a39d4015a78ab81b1e6f26af", "L_STNAME_C": "Goodyear Avenue", "R_STNAME_C": "Goodyear Avenue", "L_PLACENAM": "Grand Falls-Windsor", "R_PLACENAM": "Grand Falls-Windsor", "ROADCLASS": "Local / Street"}, "geometry": {"type": "MultiLineString", "coordinates": [[[-55.638759, 48.934397], [-55.64052, 48.934418], [-55.641845, 48.934397], [-55.641996, 48.934372]]]}}, {"type": "Feature", "properties": {"street": "Goodyear Avenue", "NID": "45129d32b4da41b9a0985fb511435f83", "L_STNAME_C": "Goodyear Avenue", "R_STNAME_C": "Goodyear Avenue", "L_PLACENAM": "Grand Falls-Windsor", "R_PLACENAM": "Grand Falls-Windsor", "ROADCLASS": "Local / Street"}, "geometry": {"type": "MultiLineString", "coordinates": [[[-55.645736, 48.935442], [-55.64606, 48.93558]]]}}, {"type": "Feature", "properties": {"street": "Goodyear Avenue", "NID": "49ffe5deafe344f886dd4c26e46c4d86", "L_STNAME_C": "Goodyear Avenue", "R_STNAME_C": "Goodyear Avenue", "L_PLACENAM": "Grand Falls-Windsor", "R_PLACENAM": "Grand Falls-Windsor", "ROADCLASS": "Local / Street"}, "geometry": {"type": "MultiLineString", "coordinates": [[[-55.642089, 48.928931], [-55.640809, 48.928817], [-55.640453, 48.928866], [-55.639076, 48.929291]]]}}, {"type": "Feature", "properties": {"street": "Goodyear Avenue", "NID": "b87c698d63ba47c09fea717757f39e1c", "L_STNAME_C": "Goodyear Avenue", "R_STNAME_C": "Goodyear Avenue", "L_PLACENAM": "Grand Falls-Windsor", "R_PLACENAM": "Grand Falls-Windsor", "ROADCLASS": "Collector"}, "geometry": {"type": "MultiLineString", "coordinates": [[[-55.646494, 48.935693], [-55.646726, 48.935696]]]}}, {"type": "Feature", "properties": {"street": "Goodyear Avenue", "NID": "de192875c6c440488201deca9054a204", "L_STNAME_C": "Goodyear Avenue", "R_STNAME_C": "Goodyear Avenue", "L_PLACENAM": "Grand Falls-Windsor", "R_PLACENAM": "Grand Falls-Windsor", "ROADCLASS": "Local / Street"}, "geometry": {"type": "MultiLineString", "coordinates": [[[-55.646926, 48.929797], [-55.646524, 48.929514], [-55.646267, 48.929421], [-55.644838, 48.92926]]]}}, {"type": "Feature", "properties": {"street": "Goodyear Avenue", "NID": "d37e66f8e0704d548741816d34eb68a2", "L_STNAME_C": "Goodyear Avenue", "R_STNAME_C": "Goodyear Avenue", "L_PLACENAM": "Grand Falls-Windsor", "R_PLACENAM": "Grand Falls-Windsor", "ROADCLASS": "Local / Street"}, "geometry": {"type": "MultiLineString", "coordinates": [[[-55.634862, 48.933595], [-55.635045, 48.933894], [-55.635285, 48.934113], [-55.635513, 48.93426], [-55.635811, 48.934362], [-55.636137, 48.93442], [-55.636491, 48.934442], [-55.637925, 48.934459]]]}}, {"type": "Feature", "properties": {"street": "Goodyear Avenue", "NID": "ece7224b71c746149a777634f7140bf4", "L_STNAME_C": "Goodyear Avenue", "R_STNAME_C": "Goodyear Avenue", "L_PLACENAM": "Grand Falls-Windsor", "R_PLACENAM": "Grand Falls-Windsor", "ROADCLASS": "Collector"}, "geometry": {"type": "MultiLineString", "coordinates": [[[-55.64606, 48.93558], [-55.646494, 48.935693]]]}}, {"type": "Feature", "properties": {"street": "Goodyear Avenue", "NID": "cd455ee57ab2493fb4f74c86978f6cb8", "L_STNAME_C": "Goodyear Avenue", "R_STNAME_C": "Goodyear Avenue", "L_PLACENAM": "Grand Falls-Windsor", "R_PLACENAM": "Grand Falls-Windsor", "ROADCLASS": "Local / Street"}, "geometry": {"type": "MultiLineString", "coordinates": [[[-55.643614, 48.929101], [-55.642089, 48.928931]]]}}, {"type": "Feature", "properties": {"street": "Goodyear Avenue", "NID": "3fd4510e77774cd484f268510193c50c", "L_STNAME_C": "Goodyear Avenue", "R_STNAME_C": "Goodyear Avenue", "L_PLACENAM": "Grand Falls-Windsor", "R_PLACENAM": "Grand Falls-Windsor", "ROADCLASS": "Local / Street"}, "geometry": {"type": "MultiLineString", "coordinates": [[[-55.641996, 48.934372], [-55.64434, 48.935056]]]}}, {"type": "Feature", "properties": {"street": "Goodyear Avenue", "NID": "f9ebc219a4e84344a6231d01672944ef", "L_STNAME_C": "Goodyear Avenue", "R_STNAME_C": "Goodyear Avenue", "L_PLACENAM": "Grand Falls-Windsor", "R_PLACENAM": "Grand Falls-Windsor", "ROADCLASS": "Local / Street"}, "geometry": {"type": "MultiLineString", "coordinates": [[[-55.637925, 48.934459], [-55.638595, 48.934431], [-55.638759, 48.934397]]]}}, {"type": "Feature", "properties": {"street": "Goodyear Avenue", "NID": "c35a266effe44941b5b13ba3b8dcef17", "L_STNAME_C": "Goodyear Avenue", "R_STNAME_C": "Goodyear Avenue", "L_PLACENAM": "Grand Falls-Windsor", "R_PLACENAM": "Grand Falls-Windsor", "ROADCLASS": "Local / Street"}, "geometry": {"type": "MultiLineString", "coordinates": [[[-55.64434, 48.935056], [-55.645736, 48.935442]]]}}, {"type": "Feature", "properties": {"street": "Goodyear Avenue", "NID": "67aa4a62ba79487f8b35e359014d840f", "L_STNAME_C": "Goodyear Avenue", "R_STNAME_C": "Goodyear Avenue", "L_PLACENAM": "Grand Falls-Windsor", "R_PLACENAM": "Grand Falls-Windsor", "ROADCLASS": "Local / Street"}, "geometry": {"type": "MultiLineString", "coordinates": [[[-55.639076, 48.929291], [-55.638428, 48.929499], [-55.637957, 48.929754], [-55.63772, 48.92995]]]}}, {"type": "Feature", "properties": {"street": "Goodyear Avenue", "NID": "fd33934fd5064769981933b22f7f1a3b", "L_STNAME_C": "Goodyear Avenue", "R_STNAME_C": "Goodyear Avenue", "L_PLACENAM": "Grand Falls-Windsor", "R_PLACENAM": "Grand Falls-Windsor", "ROADCLASS": "Local / Street"}, "geometry": {"type": "MultiLineString", "coordinates": [[[-55.63772, 48.92995], [-55.635057, 48.932986], [-55.634941, 48.9332], [-55.634862, 48.933595]]]}}, {"type": "Feature", "properties": {"street": "Kenmore Drive", "NID": "2646d43b10544c75ad189185648dc77e", "L_STNAME_C": "Kenmore Drive", "R_STNAME_C": "Kenmore Drive", "L_PLACENAM": "Grand Falls-Windsor", "R_PLACENAM": "Grand Falls-Windsor", "ROADCLASS": "Local / Street"}, "geometry": {"type": "MultiLineString", "coordinates": [[[-55.669603, 48.950383], [-55.670219, 48.949823], [-55.670783, 48.949155]]]}}, {"type": "Feature", "properties": {"street": "Southcott Drive", "NID": "81f8774e92b54f06acc60d6720ec5707", "L_STNAME_C": "Southcott Drive", "R_STNAME_C": "Southcott Drive", "L_PLACENAM": "Grand Falls-Windsor", "R_PLACENAM": "Grand Falls-Windsor", "ROADCLASS": "Local / Street"}, "geometry": {"type": "MultiLineString", "coordinates": [[[-55.649834, 48.940438], [-55.650409, 48.939869], [-55.650454, 48.939716], [-55.650321, 48.939589], [-55.649511, 48.939246]]]}}, {"type": "Feature", "properties": {"street": "Southcott Drive", "NID": "848b81c4d9a84b6f9a71ed19deda0bd3", "L_STNAME_C": "Southcott Drive", "R_STNAME_C": "Southcott Drive", "L_PLACENAM": "Grand Falls-Windsor", "R_PLACENAM": "Grand Falls-Windsor", "ROADCLASS": "Local / Street"}, "geometry": {"type": "MultiLineString", "coordinates": [[[-55.647753, 48.942644], [-55.648555, 48.941799]]]}}, {"type": "Feature", "properties": {"street": "Southcott Drive", "NID": "92d9d413d5094f8e9a3f105d1755a02e", "L_STNAME_C": "Southcott Drive", "R_STNAME_C": "Southcott Drive", "L_PLACENAM": "Grand Falls-Windsor", "R_PLACENAM": "Grand Falls-Windsor", "ROADCLASS": "Local / Street"}, "geometry": {"type": "MultiLineString", "coordinates": [[[-55.64673, 48.943127], [-55.647378, 48.942901], [-55.647753, 48.942644]]]}}, {"type": "Feature", "properties": {"street": "Southcott Drive", "NID": "fd480b0f151b47288f9c97eba61f2014", "L_STNAME_C": "Southcott Drive", "R_STNAME_C": "Southcott Drive", "L_PLACENAM": "Grand Falls-Windsor", "R_PLACENAM": "Grand Falls-Windsor", "ROADCLASS": "Local / Street"}, "geometry": {"type": "MultiLineString", "coordinates": [[[-55.648555, 48.941799], [-55.649834, 48.940438]]]}}, {"type": "Feature", "properties": {"street": "Southcott Drive", "NID": "6befa0ac674c479ba0764fa3f83b804d", "L_STNAME_C": "Southcott Drive", "R_STNAME_C": "Southcott Drive", "L_PLACENAM": "Grand Falls-Windsor", "R_PLACENAM": "Grand Falls-Windsor", "ROADCLASS": "Local / Street"}, "geometry": {"type": "MultiLineString", "coordinates": [[[-55.649511, 48.939246], [-55.648809, 48.938941], [-55.648579, 48.938885], [-55.648469, 48.938892], [-55.648262, 48.938998], [-55.647349, 48.939932], [-55.647165, 48.940154], [-55.647202, 48.94029], [-55.647364, 48.940391], [-55.648106, 48.940696]]]}}]}